{
  "type": "FeatureCollection",
  "features": [
    {
      "type": "Feature",
      "properties": {
        "norad_id": 43602,
        "name": "BEIDOU-3 M12 (C26)",
        "group": "beidou",
        "lat": 2.5084314378853705,
        "lon": 5.3323027798815446,
        "alt_km": 21546.752334314097,
        "timestamp": "2025-12-19T06:59:44.173786+00:00",
        "meta_object_name": "BEIDOU-3 M12 (C26)",
        "meta_object_id": "2018-067A",
        "meta_epoch": "2025-12-17T22:53:45.555072",
        "meta_mean_motion": 1.86227791,
        "meta_eccentricity": 0.00092249,
        "meta_inclination": 54.1833,
        "meta_ra_of_asc_node": 187.186,
        "meta_arg_of_pericenter": 41.0055,
        "meta_mean_anomaly": 319.1284,
        "meta_ephemeris_type": 0,
        "meta_classification_type": "U",
        "meta_norad_cat_id": 43602,
        "meta_element_set_no": 999,
        "meta_rev_at_epoch": 4974,
        "meta_bstar": 0,
        "meta_mean_motion_dot": 1.1e-06,
        "meta_mean_motion_ddot": 0,
        "tle_line1": "1 43602U 18067A   25351.95399948  .00000110  00000+0  00000+0 0  9999",
        "tle_line2": "2 43602  54.1833 187.1860 0009224  41.0055 319.1284  1.86227791 49749"
      },
      "geometry": {
        "type": "Point",
        "coordinates": [
          5.3323027798815446,
          2.5084314378853705
        ]
      }
    },
    {
      "type": "Feature",
      "properties": {
        "norad_id": 43603,
        "name": "BEIDOU-3 M11 (C25)",
        "group": "beidou",
        "lat": 54.009774186723064,
        "lon": -88.62892789364102,
        "alt_km": 21511.99101965558,
        "timestamp": "2025-12-19T06:59:44.173797+00:00",
        "meta_object_name": "BEIDOU-3 M11 (C25)",
        "meta_object_id": "2018-067B",
        "meta_epoch": "2025-12-18T02:07:28.250688",
        "meta_mean_motion": 1.86227303,
        "meta_eccentricity": 0.00056103,
        "meta_inclination": 54.1805,
        "meta_ra_of_asc_node": 187.1455,
        "meta_arg_of_pericenter": 36.7465,
        "meta_mean_anomaly": 323.3559,
        "meta_ephemeris_type": 0,
        "meta_classification_type": "U",
        "meta_norad_cat_id": 43603,
        "meta_element_set_no": 999,
        "meta_rev_at_epoch": 4977,
        "meta_bstar": 0,
        "meta_mean_motion_dot": 1.09e-06,
        "meta_mean_motion_ddot": 0,
        "tle_line1": "1 43603U 18067B   25352.08852142  .00000109  00000+0  00000+0 0  9993",
        "tle_line2": "2 43603  54.1805 187.1455 0005610  36.7465 323.3559  1.86227303 49774"
      },
      "geometry": {
        "type": "Point",
        "coordinates": [
          -88.62892789364102,
          54.009774186723064
        ]
      }
    },
    {
      "type": "Feature",
      "properties": {
        "norad_id": 43622,
        "name": "BEIDOU-3 M13 (C32)",
        "group": "beidou",
        "lat": 48.707111374129084,
        "lon": -160.31088637403838,
        "alt_km": 21539.000431479166,
        "timestamp": "2025-12-19T06:59:44.173809+00:00",
        "meta_object_name": "BEIDOU-3 M13 (C32)",
        "meta_object_id": "2018-072A",
        "meta_epoch": "2025-12-18T01:04:45.720768",
        "meta_mean_motion": 1.86231064,
        "meta_eccentricity": 0.00060078,
        "meta_inclination": 56.4641,
        "meta_ra_of_asc_node": 68.6443,
        "meta_arg_of_pericenter": 298.9487,
        "meta_mean_anomaly": 61.0199,
        "meta_ephemeris_type": 0,
        "meta_classification_type": "U",
        "meta_norad_cat_id": 43622,
        "meta_element_set_no": 999,
        "meta_rev_at_epoch": 4928,
        "meta_bstar": 0,
        "meta_mean_motion_dot": -6.7e-07,
        "meta_mean_motion_ddot": 0,
        "tle_line1": "1 43622U 18072A   25352.04497362 -.00000067  00000+0  00000+0 0  9999",
        "tle_line2": "2 43622  56.4641  68.6443 0006007 298.9487  61.0199  1.86231064 49286"
      },
      "geometry": {
        "type": "Point",
        "coordinates": [
          -160.31088637403838,
          48.707111374129084
        ]
      }
    },
    {
      "type": "Feature",
      "properties": {
        "norad_id": 43623,
        "name": "BEIDOU-3 M14 (C33)",
        "group": "beidou",
        "lat": -21.365458611852894,
        "lon": -96.37555785091384,
        "alt_km": 21536.47306761444,
        "timestamp": "2025-12-19T06:59:44.173820+00:00",
        "meta_object_name": "BEIDOU-3 M14 (C33)",
        "meta_object_id": "2018-072B",
        "meta_epoch": "2025-12-18T10:44:15.262368",
        "meta_mean_motion": 1.8623104,
        "meta_eccentricity": 0.00033898,
        "meta_inclination": 56.4661,
        "meta_ra_of_asc_node": 68.625,
        "meta_arg_of_pericenter": 331.3053,
        "meta_mean_anomaly": 28.7068,
        "meta_ephemeris_type": 0,
        "meta_classification_type": "U",
        "meta_norad_cat_id": 43623,
        "meta_element_set_no": 999,
        "meta_rev_at_epoch": 4928,
        "meta_bstar": 0,
        "meta_mean_motion_dot": -6.3e-07,
        "meta_mean_motion_ddot": 0,
        "tle_line1": "1 43623U 18072B   25352.44739887 -.00000063  00000+0  00000+0 0  9991",
        "tle_line2": "2 43623  56.4661  68.6250 0003389 331.3053  28.7068  1.86231040 49285"
      },
      "geometry": {
        "type": "Point",
        "coordinates": [
          -96.37555785091384,
          -21.365458611852894
        ]
      }
    },
    {
      "type": "Feature",
      "properties": {
        "norad_id": 43647,
        "name": "BEIDOU-3 M16 (C35)",
        "group": "beidou",
        "lat": 52.99923566169708,
        "lon": 53.55701817590584,
        "alt_km": 21518.33092823147,
        "timestamp": "2025-12-19T06:59:44.173831+00:00",
        "meta_object_name": "BEIDOU-3 M16 (C35)",
        "meta_object_id": "2018-078A",
        "meta_epoch": "2025-12-18T14:31:23.928384",
        "meta_mean_motion": 1.86232416,
        "meta_eccentricity": 0.00073312,
        "meta_inclination": 54.2565,
        "meta_ra_of_asc_node": 306.3163,
        "meta_arg_of_pericenter": 19.8035,
        "meta_mean_anomaly": 340.2135,
        "meta_ephemeris_type": 0,
        "meta_classification_type": "U",
        "meta_norad_cat_id": 43647,
        "meta_element_set_no": 999,
        "meta_rev_at_epoch": 4879,
        "meta_bstar": 0,
        "meta_mean_motion_dot": -8.1e-07,
        "meta_mean_motion_ddot": 0,
        "tle_line1": "1 43647U 18078A   25352.60513806 -.00000081  00000+0  00000+0 0  9992",
        "tle_line2": "2 43647  54.2565 306.3163 0007331  19.8035 340.2135  1.86232416 48794"
      },
      "geometry": {
        "type": "Point",
        "coordinates": [
          53.55701817590584,
          52.99923566169708
        ]
      }
    },
    {
      "type": "Feature",
      "properties": {
        "norad_id": 43648,
        "name": "BEIDOU-3 M15 (C34)",
        "group": "beidou",
        "lat": 10.949918561333492,
        "lon": -45.728512808297225,
        "alt_km": 21515.78750318116,
        "timestamp": "2025-12-19T06:59:44.173842+00:00",
        "meta_object_name": "BEIDOU-3 M15 (C34)",
        "meta_object_id": "2018-078B",
        "meta_epoch": "2025-12-18T04:44:16.550592",
        "meta_mean_motion": 1.86232281,
        "meta_eccentricity": 0.00039569,
        "meta_inclination": 54.2524,
        "meta_ra_of_asc_node": 306.3307,
        "meta_arg_of_pericenter": 20.2527,
        "meta_mean_anomaly": 339.7508,
        "meta_ephemeris_type": 0,
        "meta_classification_type": "U",
        "meta_norad_cat_id": 43648,
        "meta_element_set_no": 999,
        "meta_rev_at_epoch": 4880,
        "meta_bstar": 0,
        "meta_mean_motion_dot": -8.5e-07,
        "meta_mean_motion_ddot": 0,
        "tle_line1": "1 43648U 18078B   25352.19741378 -.00000085  00000+0  00000+0 0  9998",
        "tle_line2": "2 43648  54.2524 306.3307 0003956  20.2527 339.7508  1.86232281 48800"
      },
      "geometry": {
        "type": "Point",
        "coordinates": [
          -45.728512808297225,
          10.949918561333492
        ]
      }
    },
    {
      "type": "Feature",
      "properties": {
        "norad_id": 43683,
        "name": "BEIDOU-3 G1 (C59)",
        "group": "beidou",
        "lat": -2.0297473309675214,
        "lon": -26.928100281736224,
        "alt_km": 35793.98457607316,
        "timestamp": "2025-12-19T06:59:44.173854+00:00",
        "meta_object_name": "BEIDOU-3 G1 (C59)",
        "meta_object_id": "2018-085A",
        "meta_epoch": "2025-12-18T22:31:16.603104",
        "meta_mean_motion": 1.00269058,
        "meta_eccentricity": 0.00016284,
        "meta_inclination": 2.6228,
        "meta_ra_of_asc_node": 102.7865,
        "meta_arg_of_pericenter": 47.4963,
        "meta_mean_anomaly": 55.3654,
        "meta_ephemeris_type": 0,
        "meta_classification_type": "U",
        "meta_norad_cat_id": 43683,
        "meta_element_set_no": 999,
        "meta_rev_at_epoch": 2625,
        "meta_bstar": 0,
        "meta_mean_motion_dot": -2.55e-06,
        "meta_mean_motion_ddot": 0,
        "tle_line1": "1 43683U 18085A   25352.93838661 -.00000255  00000+0  00000+0 0  9998",
        "tle_line2": "2 43683   2.6228 102.7865 0001628  47.4963  55.3654  1.00269058 26259"
      },
      "geometry": {
        "type": "Point",
        "coordinates": [
          -26.928100281736224,
          -2.0297473309675214
        ]
      }
    }
  ]
}